{"type":"FeatureCollection","name":"khoa-deep-water-route","features":[{"type":"Feature","id":"khoa-dwrtpt-500001","geometry":{"type":"Polygon","coordinates":[[[126.1813906,34.586666099999995],[126.17607520000001,34.573691100000005],[126.17284369999999,34.5658027],[126.1701592,34.5592498],[126.16554250000002,34.5479801],[126.16500340000002,34.54666420000001],[126.1678932,34.5477791],[126.17615910000002,34.5509681],[126.1786784,34.55732089999999],[126.1883338,34.5816687],[126.18828089999998,34.5817068],[126.18668970000002,34.582852100000004],[126.1813906,34.586666099999995]]]},"properties":{"id":"khoa-dwrtpt-500001","name":null,"minDepth":-4.0,"maxDepth":null,"bearing":20.0,"surveyCharacteristic":null,"trafficFlow":"TAC004","source":"국립해양조사원(KHOA)","sourceUpdatedAt":"2025-08-11","sourceRaw":"{\"gid\":1,\"objnum\":\"500001\",\"pbinst\":\"1192136\",\"indcde_1\":\"\",\"indcde_2\":\"\",\"indcde_3\":\"CLW001\",\"mnymd\":\"20241130\",\"clfcde\":\"COD007\",\"enclev\":\"5\",\"enc_no\":\"KR5G3F11\",\"gubun\":\"GBN092\",\"datend\":\"\",\"datsta\":\"\",\"drval1\":-4.0,\"drval2\":null,\"nobjnm\":\"\",\"objnam\":\"\",\"orient\":\"20\",\"quasou\":\"\",\"restrn\":\"\",\"souacc\":\"\",\"status\":\"\",\"tecsou\":\"\",\"trafic\":\"TAC004\",\"inform\":\"\",\"ninfom\":\"\",\"ntxtds\":\"\",\"scamin\":null,\"txtdsc\":\"\",\"sordat\":\"\",\"sorind\":\"\"}"}},{"type":"Feature","id":"khoa-dwrtpt-500002","geometry":{"type":"Polygon","coordinates":[[[126.20528640000002,34.587296699999996],[126.2139748,34.59018110000001],[126.2177307,34.59873049999999],[126.21401720000001,34.597497700000005],[126.2098288,34.5961072],[126.1813906,34.586666099999995],[126.18668970000002,34.582852100000004],[126.18828089999998,34.5817068],[126.1883338,34.5816687],[126.20302430000001,34.586545699999995],[126.20528640000002,34.587296699999996]]]},"properties":{"id":"khoa-dwrtpt-500002","name":null,"minDepth":-4.0,"maxDepth":null,"bearing":70.0,"surveyCharacteristic":null,"trafficFlow":"TAC004","source":"국립해양조사원(KHOA)","sourceUpdatedAt":"2025-08-11","sourceRaw":"{\"gid\":2,\"objnum\":\"500002\",\"pbinst\":\"1192136\",\"indcde_1\":\"\",\"indcde_2\":\"\",\"indcde_3\":\"CLW001\",\"mnymd\":\"20241130\",\"clfcde\":\"COD007\",\"enclev\":\"5\",\"enc_no\":\"KR5G3F11\",\"gubun\":\"GBN092\",\"datend\":\"\",\"datsta\":\"\",\"drval1\":-4.0,\"drval2\":null,\"nobjnm\":\"\",\"objnam\":\"\",\"orient\":\"70\",\"quasou\":\"\",\"restrn\":\"\",\"souacc\":\"\",\"status\":\"\",\"tecsou\":\"\",\"trafic\":\"TAC004\",\"inform\":\"\",\"ninfom\":\"\",\"ntxtds\":\"\",\"scamin\":null,\"txtdsc\":\"\",\"sordat\":\"\",\"sorind\":\"\"}"}},{"type":"Feature","id":"khoa-dwrtpt-500003","geometry":{"type":"Polygon","coordinates":[[[128.6474167,35.0788333],[128.6490278,35.080749999999995],[128.628409,35.1],[128.6163889,35.1112222],[128.6145,35.1095556],[128.6247381,35.10000000000001],[128.62500000000003,35.099755599999995],[128.6474167,35.0788333]]]},"properties":{"id":"khoa-dwrtpt-500003","name":"Masan Fairway","minDepth":null,"maxDepth":null,"bearing":139.0,"surveyCharacteristic":null,"trafficFlow":"TAC004","source":"국립해양조사원(KHOA)","sourceUpdatedAt":"2025-08-11","sourceRaw":"{\"gid\":3,\"objnum\":\"500003\",\"pbinst\":\"1192136\",\"indcde_1\":\"\",\"indcde_2\":\"ENW014\",\"indcde_3\":\"CLW021\",\"mnymd\":\"20241130\",\"clfcde\":\"COD007\",\"enclev\":\"6\",\"enc_no\":\"KR688D84\",\"gubun\":\"GBN092\",\"datend\":\"\",\"datsta\":\"\",\"drval1\":null,\"drval2\":null,\"nobjnm\":\"\",\"objnam\":\"\",\"orient\":\"139\",\"quasou\":\"\",\"restrn\":\"\",\"souacc\":\"\",\"status\":\"\",\"tecsou\":\"\",\"trafic\":\"TAC004\",\"inform\":\"Masan Fairway\",\"ninfom\":\"마산항로\",\"ntxtds\":\"\",\"scamin\":null,\"txtdsc\":\"\",\"sordat\":\"20150703\",\"sorind\":\"KR,KR,reprt,NTM2015-42-644\"}"}},{"type":"Feature","id":"khoa-dwrtpt-500004","geometry":{"type":"Polygon","coordinates":[[[127.8044444,34.8333333],[127.79999999999998,34.83333330000001],[127.7980556,34.8333333],[127.79999999999998,34.82641000000001],[127.804978,34.80868499999999],[127.811356,34.8095598],[127.8044444,34.8333333]]]},"properties":{"id":"khoa-dwrtpt-500004","name":null,"minDepth":null,"maxDepth":null,"bearing":345.0,"surveyCharacteristic":null,"trafficFlow":"TAC004","source":"국립해양조사원(KHOA)","sourceUpdatedAt":"2025-08-11","sourceRaw":"{\"gid\":4,\"objnum\":\"500004\",\"pbinst\":\"1192136\",\"indcde_1\":\"\",\"indcde_2\":\"ENW002\",\"indcde_3\":\"CLW019\",\"mnymd\":\"20241130\",\"clfcde\":\"COD007\",\"enclev\":\"6\",\"enc_no\":\"KR688D84\",\"gubun\":\"GBN092\",\"datend\":\"\",\"datsta\":\"\",\"drval1\":null,\"drval2\":null,\"nobjnm\":\"\",\"objnam\":\"\",\"orient\":\"345\",\"quasou\":\"\",\"restrn\":\"\",\"souacc\":\"\",\"status\":\"\",\"tecsou\":\"\",\"trafic\":\"TAC004\",\"inform\":\"\",\"ninfom\":\"\",\"ntxtds\":\"\",\"scamin\":null,\"txtdsc\":\"\",\"sordat\":\"\",\"sorind\":\"\"}"}},{"type":"Feature","id":"khoa-dwrtpt-500005","geometry":{"type":"Polygon","coordinates":[[[127.80805559999999,34.7947222],[127.80813389999999,34.7944599],[127.80954439999998,34.789732599999994],[127.8139404,34.775],[127.8183333,34.76027779999999],[127.82444439999999,34.76138890000001],[127.8208626,34.775],[127.8202778,34.7772222],[127.8163481,34.7868285],[127.8127784,34.7955549],[127.8127781,34.795555500000006],[127.81277790000001,34.7955555],[127.80805559999999,34.7947222]]]},"properties":{"id":"khoa-dwrtpt-500005","name":null,"minDepth":null,"maxDepth":null,"bearing":345.0,"surveyCharacteristic":null,"trafficFlow":"TAC004","source":"국립해양조사원(KHOA)","sourceUpdatedAt":"2025-08-11","sourceRaw":"{\"gid\":5,\"objnum\":\"500005\",\"pbinst\":\"1192136\",\"indcde_1\":\"\",\"indcde_2\":\"ENW026\",\"indcde_3\":\"CLW019\",\"mnymd\":\"20241130\",\"clfcde\":\"COD007\",\"enclev\":\"6\",\"enc_no\":\"KR688D84\",\"gubun\":\"GBN092\",\"datend\":\"\",\"datsta\":\"\",\"drval1\":null,\"drval2\":null,\"nobjnm\":\"\",\"objnam\":\"\",\"orient\":\"345\",\"quasou\":\"\",\"restrn\":\"\",\"souacc\":\"\",\"status\":\"\",\"tecsou\":\"\",\"trafic\":\"TAC004\",\"inform\":\"\",\"ninfom\":\"\",\"ntxtds\":\"\",\"scamin\":null,\"txtdsc\":\"\",\"sordat\":\"\",\"sorind\":\"\"}"}}]}
